{"type":"FeatureCollection","features":[{"type":"Feature","geometry":{"geodesic":false,"crs":{"type":"name","properties":{"name":"EPSG:32651"}},"type":"Polygon","coordinates":[[[120.3795565673454,22.809079216051504],[120.38731062545831,22.80920657103811],[120.38717342863866,22.816395223063285],[120.3794189644814,22.816267823512977],[120.3795565673454,22.809079216051504]]]},"id":"161","properties":{"BASEVEG_2022":0.911000471492034,"ELEV_M":82.5303556211676,"NDMI_2020":0.22474681846151734,"NDMI_2021":0.1279548500058455,"NDMI_2022":0.23063908076796352,"NDVI_2020":0.744678514282215,"NDVI_2021":0.6733919433104604,"NDVI_2022":0.7602841756411114,"SLOPE_DEG":8.666109562253308,"VALID_2020":34.382554918316906,"VALID_2021":34.419878178322804,"VALID_2022":23.666552552823457,"abs_diff_BASEVEG_2022":0.009119263486623508,"abs_diff_ELEV_M":12.165957997324483,"abs_diff_NDMI_2020":0.0154278090963412,"abs_diff_NDMI_2021":0.004729393007561505,"abs_diff_NDMI_2022":0.0012761202761380208,"abs_diff_NDVI_2020":0.01372639623620131,"abs_diff_NDVI_2021":0.007801316835775118,"abs_diff_NDVI_2022":0.00837491789087974,"abs_diff_SLOPE_DEG":1.4216475552653538,"candidate_id":"C162","center_lat":22.81273725638963,"center_lon":120.38336489647324,"center_x_utm51n":231409.013,"center_y_utm51n":2525169.146,"distance_from_sc0002_m":11401.75425099138,"dx_m":-3000,"dy_m":11000,"match_pass":1,"match_score":0.25179461030810835,"nominal_square_area_ha":63.456375334400995,"outcome_data_used_for_ranking":"NO","selection_data_end":"2022-12-31","rank":1}},{"type":"Feature","geometry":{"geodesic":false,"crs":{"type":"name","properties":{"name":"EPSG:32651"}},"type":"Polygon","coordinates":[[[120.38929057798684,22.809239029889774],[120.39704470551355,22.809365912255956],[120.39690801843709,22.816554620037497],[120.38915348484979,22.816427693272875],[120.38929057798684,22.809239029889774]]]},"id":"184","properties":{"BASEVEG_2022":0.9049464643349953,"ELEV_M":85.95609624369779,"NDMI_2020":0.23919045112512038,"NDMI_2021":0.16436649820250984,"NDMI_2022":0.25046561842049825,"NDVI_2020":0.735227387582741,"NDVI_2021":0.6908780223863146,"NDVI_2022":0.7636880801197189,"SLOPE_DEG":9.643411351681136,"VALID_2020":35.27066979676407,"VALID_2021":32.66530924748514,"VALID_2022":17.380582437879543,"abs_diff_BASEVEG_2022":0.015173270643662251,"abs_diff_ELEV_M":8.740217374794298,"abs_diff_NDMI_2020":0.0009841764327381541,"abs_diff_NDMI_2021":0.03168225518910284,"abs_diff_NDMI_2022":0.018550417376396705,"abs_diff_NDVI_2020":0.02317752293567532,"abs_diff_NDVI_2021":0.025287395911629318,"abs_diff_NDVI_2022":0.01177882236948724,"abs_diff_SLOPE_DEG":0.44434576583752516,"candidate_id":"C185","center_lat":22.81289686183826,"center_lon":120.39309919668925,"center_x_utm51n":232409.013,"center_y_utm51n":2525169.146,"distance_from_sc0002_m":11180.339887498949,"dx_m":-2000,"dy_m":11000,"match_pass":1,"match_score":0.46523159556191346,"nominal_square_area_ha":63.456375334400995,"outcome_data_used_for_ranking":"NO","selection_data_end":"2022-12-31","rank":2}},{"type":"Feature","geometry":{"geodesic":false,"crs":{"type":"name","properties":{"name":"EPSG:32651"}},"type":"Polygon","coordinates":[[[120.39152006153645,22.691922917681815],[120.3992675854591,22.692049076125844],[120.3991317961446,22.69923790206577],[120.39138386882553,22.69911169929668],[120.39152006153645,22.691922917681815]]]},"id":"171","properties":{"BASEVEG_2022":0.879261580443771,"ELEV_M":115.94321888785969,"NDMI_2020":0.24329682114223736,"NDMI_2021":0.150114142217939,"NDMI_2022":0.24614015036847547,"NDVI_2020":0.7337777280194916,"NDVI_2021":0.6425296665691222,"NDVI_2022":0.7437263497999734,"SLOPE_DEG":10.215358901421965,"VALID_2020":30.361401425104745,"VALID_2021":30.274910753293494,"VALID_2022":17.650564461859503,"abs_diff_BASEVEG_2022":0.040858154534886504,"abs_diff_ELEV_M":21.246905269367602,"abs_diff_NDMI_2020":0.0031221935843788184,"abs_diff_NDMI_2021":0.017429899204532,"abs_diff_NDMI_2022":0.014224949324373931,"abs_diff_NDVI_2020":0.024627182498924705,"abs_diff_NDVI_2021":0.023060959905563005,"abs_diff_NDVI_2022":0.008182907950258222,"abs_diff_SLOPE_DEG":0.12760178390330346,"candidate_id":"C172","center_lat":22.69558044649453,"center_lon":120.39532582798383,"center_x_utm51n":232409.013,"center_y_utm51n":2512169.146,"distance_from_sc0002_m":2828.42712474619,"dx_m":-2000,"dy_m":-2000,"match_pass":1,"match_score":0.5171428888591972,"nominal_square_area_ha":63.456375334400995,"outcome_data_used_for_ranking":"NO","selection_data_end":"2022-12-31","rank":3}},{"type":"Feature","geometry":{"geodesic":false,"crs":{"type":"name","properties":{"name":"EPSG:32651"}},"type":"Polygon","coordinates":[[[120.39083563112332,22.72802038839809],[120.3985851822951,22.728146769459954],[120.3984491171103,22.735335559098434],[120.39069916172345,22.735209133688997],[120.39083563112332,22.72802038839809]]]},"id":"175","properties":{"BASEVEG_2022":0.8615166718471055,"ELEV_M":96.41318830576161,"NDMI_2020":0.24411351930089029,"NDMI_2021":0.1372879494403249,"NDMI_2022":0.2299495089437379,"NDVI_2020":0.7479548364861508,"NDVI_2021":0.6436049485898604,"NDVI_2022":0.7292369864787919,"SLOPE_DEG":9.62988869471155,"VALID_2020":28.75452938235777,"VALID_2021":31.680339523700322,"VALID_2022":20.10867736906207,"abs_diff_BASEVEG_2022":0.05860306313155206,"abs_diff_ELEV_M":1.7168746872695237,"abs_diff_NDMI_2020":0.003938891743031747,"abs_diff_NDMI_2021":0.004603706426917903,"abs_diff_NDMI_2022":0.001965692100363653,"abs_diff_NDVI_2020":0.0104500740322655,"abs_diff_NDVI_2021":0.02198567788482486,"abs_diff_NDVI_2022":0.02267227127143978,"abs_diff_SLOPE_DEG":0.4578684228071115,"candidate_id":"C176","center_lat":22.731678010447084,"center_lon":120.39464227305545,"center_x_utm51n":232409.013,"center_y_utm51n":2516169.146,"distance_from_sc0002_m":2828.42712474619,"dx_m":-2000,"dy_m":2000,"match_pass":1,"match_score":0.5363053489651299,"nominal_square_area_ha":63.456375334400995,"outcome_data_used_for_ranking":"NO","selection_data_end":"2022-12-31","rank":4}},{"type":"Feature","geometry":{"geodesic":false,"crs":{"type":"name","properties":{"name":"EPSG:32651"}},"type":"Polygon","coordinates":[[[120.40944130733175,22.773459259567723],[120.41719353624136,22.773584975428143],[120.41705814325029,22.780773830454773],[120.40930550906866,22.780648070548956],[120.40944130733175,22.773459259567723]]]},"id":"221","properties":{"BASEVEG_2022":0.8719482013783872,"ELEV_M":80.61487752021114,"NDMI_2020":0.2332701675419998,"NDMI_2021":0.15001221808558507,"NDMI_2022":0.20277863448680408,"NDVI_2020":0.7540585218253019,"NDVI_2021":0.690163571097839,"NDVI_2022":0.7388461050911008,"SLOPE_DEG":8.843950319659905,"VALID_2020":27.254931973524734,"VALID_2021":31.619472559225336,"VALID_2022":15.401112424587561,"abs_diff_BASEVEG_2022":0.04817153360027027,"abs_diff_ELEV_M":14.081436098280946,"abs_diff_NDMI_2020":0.006904460015858732,"abs_diff_NDMI_2021":0.017327975072178065,"abs_diff_NDMI_2022":0.02913656655729746,"abs_diff_NDVI_2020":0.0043463886931144335,"abs_diff_NDVI_2021":0.024572944623153736,"abs_diff_NDVI_2022":0.013063152659130828,"abs_diff_SLOPE_DEG":1.2438067978587561,"candidate_id":"C222","center_lat":22.77711658189245,"center_lon":120.41324962396575,"center_x_utm51n":234409.013,"center_y_utm51n":2521169.146,"distance_from_sc0002_m":7000,"dx_m":0,"dy_m":7000,"match_pass":1,"match_score":0.6749660652159561,"nominal_square_area_ha":63.456375334400995,"outcome_data_used_for_ranking":"NO","selection_data_end":"2022-12-31","rank":5}},{"type":"Feature","geometry":{"geodesic":false,"crs":{"type":"name","properties":{"name":"EPSG:32651"}},"type":"Polygon","coordinates":[[[120.37155169761125,22.718677222514515],[120.37930060290732,22.718804488988233],[120.37916359240174,22.725993176128615],[120.37141428312769,22.725865864982826],[120.37155169761125,22.718677222514515]]]},"id":"128","properties":{"BASEVEG_2022":0.945431130956758,"ELEV_M":98.70231179403636,"NDMI_2020":0.2151872294055655,"NDMI_2021":0.1266904514095707,"NDMI_2022":0.21567716330334644,"NDVI_2020":0.7547848100729955,"NDVI_2021":0.657732904503992,"NDVI_2022":0.7765553287337007,"SLOPE_DEG":12.69130528616328,"VALID_2020":29.899993017221437,"VALID_2021":28.466603471491418,"VALID_2022":18.756534613880124,"abs_diff_BASEVEG_2022":0.025311395978100504,"abs_diff_ELEV_M":4.005998175544278,"abs_diff_NDMI_2020":0.024987398152293033,"abs_diff_NDMI_2021":0.005993791603836313,"abs_diff_NDMI_2022":0.016238037740755107,"abs_diff_NDVI_2020":0.0036201004454208263,"abs_diff_NDVI_2021":0.007857721970693232,"abs_diff_NDVI_2022":0.02464607098346905,"abs_diff_SLOPE_DEG":2.6035481686446182,"candidate_id":"C129","center_lat":22.72233523591619,"center_lon":120.37535754400412,"center_x_utm51n":230409.013,"center_y_utm51n":2515169.146,"distance_from_sc0002_m":4123.105625617661,"dx_m":-4000,"dy_m":1000,"match_pass":1,"match_score":0.7415497265258386,"nominal_square_area_ha":63.456375334400995,"outcome_data_used_for_ranking":"NO","selection_data_end":"2022-12-31","rank":6}},{"type":"Feature","geometry":{"geodesic":false,"crs":{"type":"name","properties":{"name":"EPSG:32651"}},"type":"Polygon","coordinates":[[[120.40961170314418,22.764434826522738],[120.41736342352974,22.764560487097427],[120.41722809912282,22.771749351205155],[120.40947597367035,22.77162364659069],[120.40961170314418,22.764434826522738]]]},"id":"220","properties":{"BASEVEG_2022":0.8849417308763007,"ELEV_M":118.30196562124777,"NDMI_2020":0.23321065087948667,"NDMI_2021":0.13324784923527966,"NDMI_2022":0.2110471166462486,"NDVI_2020":0.7538428043803839,"NDVI_2021":0.6686414752230642,"NDVI_2022":0.7441584180633685,"SLOPE_DEG":12.727164368617993,"VALID_2020":26.49070209056973,"VALID_2021":33.05086367082809,"VALID_2022":15.671015969552604,"abs_diff_BASEVEG_2022":0.03517800410235683,"abs_diff_ELEV_M":23.60565200275569,"abs_diff_NDMI_2020":0.006963976678371869,"abs_diff_NDMI_2021":0.0005636062218726534,"abs_diff_NDMI_2022":0.020868084397852954,"abs_diff_NDVI_2020":0.004562106138032429,"abs_diff_NDVI_2021":0.0030508487483789093,"abs_diff_NDVI_2022":0.007750839686863187,"abs_diff_SLOPE_DEG":2.639407251099332,"candidate_id":"C221","center_lat":22.768092125725605,"center_lon":120.4134197998595,"center_x_utm51n":234409.013,"center_y_utm51n":2520169.146,"distance_from_sc0002_m":6000,"dx_m":0,"dy_m":6000,"match_pass":1,"match_score":0.747979839198422,"nominal_square_area_ha":63.456375334400995,"outcome_data_used_for_ranking":"NO","selection_data_end":"2022-12-31","rank":7}},{"type":"Feature","geometry":{"geodesic":false,"crs":{"type":"name","properties":{"name":"EPSG:32651"}},"type":"Polygon","coordinates":[[[120.39066430639464,22.737044727571984],[120.3984143650211,22.73717116430598],[120.39827823081825,22.744359944861458],[120.3905277677719,22.744233463774247],[120.39066430639464,22.737044727571984]]]},"id":"176","properties":{"BASEVEG_2022":0.861603802091991,"ELEV_M":81.6765997205652,"NDMI_2020":0.2084841803139412,"NDMI_2021":0.12376171371515815,"NDMI_2022":0.21683899731140838,"NDVI_2020":0.7333156224792996,"NDVI_2021":0.6420201319099168,"NDVI_2022":0.7450026562784715,"SLOPE_DEG":11.331964059013815,"VALID_2020":30.068624028049747,"VALID_2021":31.047987754801877,"VALID_2022":21.99773832130297,"abs_diff_BASEVEG_2022":0.058515932886666566,"abs_diff_ELEV_M":13.019713897926877,"abs_diff_NDMI_2020":0.03169044724391734,"abs_diff_NDMI_2021":0.008922529298248855,"abs_diff_NDMI_2022":0.015076203732693166,"abs_diff_NDVI_2020":0.025089288039116697,"abs_diff_NDVI_2021":0.02357049456476845,"abs_diff_NDVI_2022":0.006906601471760143,"abs_diff_SLOPE_DEG":1.244206941495154,"candidate_id":"C177","center_lat":22.740702372935072,"center_lon":120.3944711674939,"center_x_utm51n":232409.013,"center_y_utm51n":2517169.146,"distance_from_sc0002_m":3605.5512754639894,"dx_m":-2000,"dy_m":3000,"match_pass":1,"match_score":0.8667892619811935,"nominal_square_area_ha":63.456375334400995,"outcome_data_used_for_ranking":"NO","selection_data_end":"2022-12-31","rank":8}},{"type":"Feature","geometry":{"geodesic":false,"crs":{"type":"name","properties":{"name":"EPSG:32651"}},"type":"Polygon","coordinates":[[[120.43846814187418,22.782955380397258],[120.44622108453312,22.78307973535127],[120.44608715009066,22.790268746009772],[120.43833380190665,22.790144347500487],[120.43846814187418,22.782955380397258]]]},"id":"289","properties":{"BASEVEG_2022":0.901697309529268,"ELEV_M":126.41355660098104,"NDMI_2020":0.18560961597697775,"NDMI_2021":0.13929066610297108,"NDMI_2022":0.21001611144215146,"NDVI_2020":0.7231086169569009,"NDVI_2021":0.6588037149251962,"NDVI_2022":0.7386078855324648,"SLOPE_DEG":10.815421140505999,"VALID_2020":29.76459138077953,"VALID_2021":28.326278667240917,"VALID_2022":17.88033804063235,"abs_diff_BASEVEG_2022":0.018422425449389546,"abs_diff_ELEV_M":31.717242982488955,"abs_diff_NDMI_2020":0.054565011580880785,"abs_diff_NDMI_2021":0.0066064230895640785,"abs_diff_NDMI_2022":0.021899089601950084,"abs_diff_NDVI_2020":0.035296293561515424,"abs_diff_NDVI_2021":0.006786911549489072,"abs_diff_NDVI_2022":0.013301372217766838,"abs_diff_SLOPE_DEG":0.7276640229873372,"candidate_id":"C290","center_lat":22.786612100231356,"center_lon":120.44227754459433,"center_x_utm51n":237409.013,"center_y_utm51n":2522169.146,"distance_from_sc0002_m":8544.003745317532,"dx_m":3000,"dy_m":8000,"match_pass":1,"match_score":1.022337966050791,"nominal_square_area_ha":63.456375334400995,"outcome_data_used_for_ranking":"NO","selection_data_end":"2022-12-31","rank":9}},{"type":"Feature","geometry":{"geodesic":false,"crs":{"type":"name","properties":{"name":"EPSG:32651"}},"type":"Polygon","coordinates":[[[120.429242974266,22.755725025326946],[120.43699432316718,22.755849687751358],[120.43686008386152,22.763038670913243],[120.42910833006647,22.762913964785014],[120.429242974266,22.755725025326946]]]},"id":"263","properties":{"BASEVEG_2022":0.9062750460832483,"ELEV_M":112.02954951191593,"NDMI_2020":0.21093888408415945,"NDMI_2021":0.14381770430318222,"NDMI_2022":0.22606088457403833,"NDVI_2020":0.7217149251834709,"NDVI_2021":0.6523566007366353,"NDVI_2022":0.7286061052757765,"SLOPE_DEG":12.90833303895926,"VALID_2020":26.527483412811325,"VALID_2021":28.897755438379427,"VALID_2022":23.15501088510123,"abs_diff_BASEVEG_2022":0.01384468889540924,"abs_diff_ELEV_M":17.333235893423847,"abs_diff_NDMI_2020":0.02923574347369909,"abs_diff_NDMI_2021":0.011133461289775215,"abs_diff_NDMI_2022":0.005854316470063209,"abs_diff_NDVI_2020":0.036689985334945385,"abs_diff_NDVI_2021":0.013234025738049993,"abs_diff_NDVI_2022":0.023303152474455135,"abs_diff_SLOPE_DEG":2.8205759214405983,"candidate_id":"C264","center_lat":22.75938188504691,"center_lon":120.43305142783332,"center_x_utm51n":236409.013,"center_y_utm51n":2519169.146,"distance_from_sc0002_m":5385.164807134504,"dx_m":2000,"dy_m":5000,"match_pass":1,"match_score":1.050633421518259,"nominal_square_area_ha":63.456375334400995,"outcome_data_used_for_ranking":"NO","selection_data_end":"2022-12-31","rank":10}},{"type":"Feature","geometry":{"geodesic":false,"crs":{"type":"name","properties":{"name":"EPSG:32651"}},"type":"Polygon","coordinates":[[[120.42856632664349,22.7918232886872],[120.43631971031662,22.791948170609498],[120.43618519869398,22.799137117496944],[120.4284314093065,22.79901219184854],[120.42856632664349,22.7918232886872]]]},"id":"267","properties":{"BASEVEG_2022":0.9003267075210707,"ELEV_M":120.48897308046162,"NDMI_2020":0.260971692664378,"NDMI_2021":0.18395568657263434,"NDMI_2022":0.2620526189622213,"NDVI_2020":0.7633103139895935,"NDVI_2021":0.6959388971998421,"NDVI_2022":0.7716196891308496,"SLOPE_DEG":11.778653959765851,"VALID_2020":32.121943412304596,"VALID_2021":25.85115744188072,"VALID_2022":17.331138804659584,"abs_diff_BASEVEG_2022":0.01979302745758682,"abs_diff_ELEV_M":25.792659461969535,"abs_diff_NDMI_2020":0.020797065106519436,"abs_diff_NDMI_2021":0.05127144355922733,"abs_diff_NDMI_2022":0.030137417918119774,"abs_diff_NDVI_2020":0.004905403471177183,"abs_diff_NDVI_2021":0.03034827072515689,"abs_diff_NDVI_2022":0.0197104313806179,"abs_diff_SLOPE_DEG":1.6908968422471897,"candidate_id":"C268","center_lat":22.795480240097113,"center_lon":120.4323756612332,"center_x_utm51n":236409.013,"center_y_utm51n":2523169.146,"distance_from_sc0002_m":9219.544457292888,"dx_m":2000,"dy_m":9000,"match_pass":1,"match_score":1.1647540155558231,"nominal_square_area_ha":63.456375334400995,"outcome_data_used_for_ranking":"NO","selection_data_end":"2022-12-31","rank":11}},{"type":"Feature","geometry":{"geodesic":false,"crs":{"type":"name","properties":{"name":"EPSG:32651"}},"type":"Polygon","coordinates":[[[120.42839695039929,22.800847826043505],[120.43615084340927,22.800972762857757],[120.43601626365738,22.808161700668993],[120.42826196472777,22.808036720123063],[120.42839695039929,22.800847826043505]]]},"id":"268","properties":{"BASEVEG_2022":0.9708502984983318,"ELEV_M":112.41982256327256,"NDMI_2020":0.2727022991098267,"NDMI_2021":0.1139844775787023,"NDMI_2022":0.26545429318213176,"NDVI_2020":0.7973419433851936,"NDVI_2021":0.6655616458549597,"NDVI_2022":0.7833966614341448,"SLOPE_DEG":9.0609379170175,"VALID_2020":31.605552730173656,"VALID_2021":27.44159523737428,"VALID_2022":18.91238528623516,"abs_diff_BASEVEG_2022":0.05073056351967431,"abs_diff_ELEV_M":17.723508944780477,"abs_diff_NDMI_2020":0.032527671551968146,"abs_diff_NDMI_2021":0.01869976543470471,"abs_diff_NDMI_2022":0.03353909213803022,"abs_diff_NDVI_2020":0.0389370328667773,"abs_diff_NDVI_2021":2.898061972556043e-05,"abs_diff_NDVI_2022":0.03148740368391312,"abs_diff_SLOPE_DEG":1.026819200501162,"candidate_id":"C269","center_lat":22.804504800380847,"center_lon":120.43220650554147,"center_x_utm51n":236409.013,"center_y_utm51n":2524169.146,"distance_from_sc0002_m":10198.03902718557,"dx_m":2000,"dy_m":10000,"match_pass":1,"match_score":1.1666240511080066,"nominal_square_area_ha":63.456375334400995,"outcome_data_used_for_ranking":"NO","selection_data_end":"2022-12-31","rank":12}},{"type":"Feature","geometry":{"geodesic":false,"crs":{"type":"name","properties":{"name":"EPSG:32651"}},"type":"Polygon","coordinates":[[[120.38127923970748,22.718836925505666],[120.38902821447103,22.718963721449516],[120.38889171111465,22.72615246448252],[120.3811423323569,22.726025624031664],[120.38127923970748,22.718836925505666]]]},"id":"151","properties":{"BASEVEG_2022":0.8400974622852713,"ELEV_M":80.23962238616976,"NDMI_2020":0.21474878265383232,"NDMI_2021":0.12545141064954393,"NDMI_2022":0.2008735833544209,"NDVI_2020":0.7343057933255115,"NDVI_2021":0.6449667479781405,"NDVI_2022":0.7338373541793718,"SLOPE_DEG":10.839063102904143,"VALID_2020":31.17442053752563,"VALID_2021":29.449964066498257,"VALID_2022":17.63866593090012,"abs_diff_BASEVEG_2022":0.08002227269338624,"abs_diff_ELEV_M":14.456691232322328,"abs_diff_NDMI_2020":0.025425844904026218,"abs_diff_NDMI_2021":0.007232832363863073,"abs_diff_NDMI_2022":0.03104161768968064,"abs_diff_NDVI_2020":0.024099117192904806,"abs_diff_NDVI_2021":0.02062387849654479,"abs_diff_NDVI_2022":0.01807190357085986,"abs_diff_SLOPE_DEG":0.751305985385482,"candidate_id":"C152","center_lat":22.72249473163106,"center_lon":120.3850853744048,"center_x_utm51n":231409.013,"center_y_utm51n":2515169.146,"distance_from_sc0002_m":3162.2776601683795,"dx_m":-3000,"dy_m":1000,"match_pass":1,"match_score":1.18077050375492,"nominal_square_area_ha":63.456375334400995,"outcome_data_used_for_ranking":"NO","selection_data_end":"2022-12-31","rank":13}},{"type":"Feature","geometry":{"geodesic":false,"crs":{"type":"name","properties":{"name":"EPSG:32651"}},"type":"Polygon","coordinates":[[[120.38230865719576,22.664691003205476],[120.39005459428843,22.664817464064523],[120.38991850603615,22.67200626155539],[120.38217216617649,22.6718797562232],[120.38230865719576,22.664691003205476]]]},"id":"145","properties":{"BASEVEG_2022":0.8998237002917313,"ELEV_M":59.642514492355005,"NDMI_2020":0.26643884496435477,"NDMI_2021":0.15332085470436535,"NDMI_2022":0.2618722951258855,"NDVI_2020":0.7598670864353229,"NDVI_2021":0.6108250813710078,"NDVI_2022":0.7554083281036846,"SLOPE_DEG":8.61281743265061,"VALID_2020":28.76445481493474,"VALID_2021":29.902947412262645,"VALID_2022":18.694283452607017,"abs_diff_BASEVEG_2022":0.0202960346869262,"abs_diff_ELEV_M":35.05379912613708,"abs_diff_NDMI_2020":0.026264217406496232,"abs_diff_NDMI_2021":0.020636611690958345,"abs_diff_NDMI_2022":0.029957094081783958,"abs_diff_NDVI_2020":0.0014621759169065607,"abs_diff_NDVI_2021":0.05476554510367748,"abs_diff_NDVI_2022":0.003499070353452982,"abs_diff_SLOPE_DEG":1.4749396848680512,"candidate_id":"C146","center_lat":22.66834866890032,"center_lon":120.38611348091645,"center_x_utm51n":231409.013,"center_y_utm51n":2509169.146,"distance_from_sc0002_m":5830.951894845301,"dx_m":-3000,"dy_m":-5000,"match_pass":1,"match_score":1.1810362505497034,"nominal_square_area_ha":63.456375334400995,"outcome_data_used_for_ranking":"NO","selection_data_end":"2022-12-31","rank":14}},{"type":"Feature","geometry":{"geodesic":false,"crs":{"type":"name","properties":{"name":"EPSG:32651"}},"type":"Polygon","coordinates":[[[120.41951245045412,22.755567999603148],[120.4272637310928,22.75569313347182],[120.42712898350852,22.762882061749337],[120.41937729799194,22.76275688401166],[120.41951245045412,22.755567999603148]]]},"id":"240","properties":{"BASEVEG_2022":0.9331834610728638,"ELEV_M":151.30199651849753,"NDMI_2020":0.22318546069339246,"NDMI_2021":0.15374475824361836,"NDMI_2022":0.22386240498137944,"NDVI_2020":0.7497311313927997,"NDVI_2021":0.7055673867101752,"NDVI_2022":0.7577102277821645,"SLOPE_DEG":11.917602904239324,"VALID_2020":30.85854435640097,"VALID_2021":31.65471396252908,"VALID_2022":19.75885994091205,"abs_diff_BASEVEG_2022":0.013063726094206252,"abs_diff_ELEV_M":56.60568290000545,"abs_diff_NDMI_2020":0.016989166864466082,"abs_diff_NDMI_2021":0.021060515230211352,"abs_diff_NDMI_2022":0.008052796062722106,"abs_diff_NDVI_2020":0.00867377912561662,"abs_diff_NDVI_2021":0.039976760235489905,"abs_diff_NDVI_2022":0.005800970031932806,"abs_diff_SLOPE_DEG":1.8298457867206626,"candidate_id":"C241","center_lat":22.759225067560706,"center_lon":120.42332061575473,"center_x_utm51n":235409.013,"center_y_utm51n":2519169.146,"distance_from_sc0002_m":5099.019513592785,"dx_m":1000,"dy_m":5000,"match_pass":1,"match_score":1.1872312918534653,"nominal_square_area_ha":63.456375334400995,"outcome_data_used_for_ranking":"NO","selection_data_end":"2022-12-31","rank":15}},{"type":"Feature","geometry":{"geodesic":false,"crs":{"type":"name","properties":{"name":"EPSG:32651"}},"type":"Polygon","coordinates":[[[120.39169095214135,22.68289852151677],[120.39943796989374,22.683024624324002],[120.3993022494964,22.69021345933164],[120.39155482855207,22.690087312204984],[120.39169095214135,22.68289852151677]]]},"id":"170","properties":{"BASEVEG_2022":0.8497442016675859,"ELEV_M":109.91060684052741,"NDMI_2020":0.24333252270957575,"NDMI_2021":0.1635516840018462,"NDMI_2022":0.2503467710795041,"NDVI_2020":0.7365251174123871,"NDVI_2021":0.6247477993685193,"NDVI_2022":0.7245320861546847,"SLOPE_DEG":9.446214973788525,"VALID_2020":32.05879190516771,"VALID_2021":29.567804324008378,"VALID_2022":17.426280706459412,"abs_diff_BASEVEG_2022":0.0703755333110716,"abs_diff_ELEV_M":15.214293222035323,"abs_diff_NDMI_2020":0.003157895151717216,"abs_diff_NDMI_2021":0.030867440988439188,"abs_diff_NDMI_2022":0.01843157003540255,"abs_diff_NDVI_2020":0.021879793106029166,"abs_diff_NDVI_2021":0.040842827106165935,"abs_diff_NDVI_2022":0.02737717159554698,"abs_diff_SLOPE_DEG":0.6415421437301365,"candidate_id":"C171","center_lat":22.68655602702543,"center_lon":120.39549650001332,"center_x_utm51n":232409.013,"center_y_utm51n":2511169.146,"distance_from_sc0002_m":3605.5512754639894,"dx_m":-2000,"dy_m":-3000,"match_pass":1,"match_score":1.2182188665854132,"nominal_square_area_ha":63.456375334400995,"outcome_data_used_for_ranking":"NO","selection_data_end":"2022-12-31","rank":16}},{"type":"Feature","geometry":{"geodesic":false,"crs":{"type":"name","properties":{"name":"EPSG:32651"}},"type":"Polygon","coordinates":[[[120.4382994904621,22.791979998023834],[120.44605294222026,22.792104407655362],[120.44591893992623,22.79929340924767],[120.43816508243775,22.799168956055315],[120.4382994904621,22.791979998023834]]]},"id":"290","properties":{"BASEVEG_2022":0.8834920319082084,"ELEV_M":109.79333262063668,"NDMI_2020":0.2147667230040679,"NDMI_2021":0.16788994707656454,"NDMI_2022":0.2401841814412313,"NDVI_2020":0.7197343968451128,"NDVI_2021":0.6485030218975453,"NDVI_2022":0.7377855090693618,"SLOPE_DEG":12.847275179826731,"VALID_2020":29.23505082906592,"VALID_2021":25.15396964777752,"VALID_2022":15.474739335350723,"abs_diff_BASEVEG_2022":0.03662770307044916,"abs_diff_ELEV_M":15.097019002144592,"abs_diff_NDMI_2020":0.025407904553790633,"abs_diff_NDMI_2021":0.03520570406315754,"abs_diff_NDMI_2022":0.008268980397129755,"abs_diff_NDVI_2020":0.03867051367330354,"abs_diff_NDVI_2021":0.01708760457713998,"abs_diff_NDVI_2022":0.014123748680869852,"abs_diff_SLOPE_DEG":2.7595180623080697,"candidate_id":"C291","center_lat":22.795636740683157,"center_lon":120.44210911375475,"center_x_utm51n":237409.013,"center_y_utm51n":2523169.146,"distance_from_sc0002_m":9486.832980505138,"dx_m":3000,"dy_m":9000,"match_pass":1,"match_score":1.2662764647709193,"nominal_square_area_ha":63.456375334400995,"outcome_data_used_for_ranking":"NO","selection_data_end":"2022-12-31","rank":17}},{"type":"Feature","geometry":{"geodesic":false,"crs":{"type":"name","properties":{"name":"EPSG:32651"}},"type":"Polygon","coordinates":[[[120.39032139620868,22.75509337168668],[120.39807247051597,22.75521991978618],[120.39793619821634,22.762408682166484],[120.39018471907933,22.76228208970249],[120.39032139620868,22.75509337168668]]]},"id":"178","properties":{"BASEVEG_2022":0.8346026953524972,"ELEV_M":72.9926334776647,"NDMI_2020":0.20575216459197396,"NDMI_2021":0.13688253232702177,"NDMI_2022":0.20469828352188688,"NDVI_2020":0.7260156347217851,"NDVI_2021":0.664796198918751,"NDVI_2022":0.7376306146771849,"SLOPE_DEG":10.01343151427961,"VALID_2020":29.418491509744673,"VALID_2021":32.06602309754819,"VALID_2022":18.364864388880196,"abs_diff_BASEVEG_2022":0.08551703962616031,"abs_diff_ELEV_M":21.703680140827387,"abs_diff_NDMI_2020":0.03442246296588458,"abs_diff_NDMI_2021":0.004198289313614767,"abs_diff_NDMI_2022":0.027216917522214668,"abs_diff_NDVI_2020":0.0323892757966312,"abs_diff_NDVI_2021":0.000794427555934285,"abs_diff_NDVI_2022":0.014278643073046715,"abs_diff_SLOPE_DEG":0.07432560323905157,"candidate_id":"C179","center_lat":22.758751063683995,"center_lon":120.39412869599751,"center_x_utm51n":232409.013,"center_y_utm51n":2519169.146,"distance_from_sc0002_m":5385.164807134504,"dx_m":-2000,"dy_m":5000,"match_pass":1,"match_score":1.3149144963317976,"nominal_square_area_ha":63.456375334400995,"outcome_data_used_for_ranking":"NO","selection_data_end":"2022-12-31","rank":18}},{"type":"Feature","geometry":{"geodesic":false,"crs":{"type":"name","properties":{"name":"EPSG:32651"}},"type":"Polygon","coordinates":[[[120.38110736517024,22.727861205973053],[120.3888568471112,22.727988057789183],[120.38872027449993,22.73517679173517],[120.38097038836004,22.735049895406384],[120.38110736517024,22.727861205973053]]]},"id":"152","properties":{"BASEVEG_2022":0.9723729149763293,"ELEV_M":111.1067549421694,"NDMI_2020":0.2422531140339831,"NDMI_2021":0.16396180053234774,"NDMI_2022":0.2259135986474303,"NDVI_2020":0.7850054574444301,"NDVI_2021":0.7049299984432983,"NDVI_2022":0.7920696461786499,"SLOPE_DEG":12.555503335038381,"VALID_2020":28.629163172702594,"VALID_2021":33.8312070875819,"VALID_2022":20.167449499989768,"abs_diff_BASEVEG_2022":0.05225317999767176,"abs_diff_ELEV_M":16.41044132367732,"abs_diff_NDMI_2020":0.0020784864761245747,"abs_diff_NDMI_2021":0.031277557518940735,"abs_diff_NDMI_2022":0.006001602396671246,"abs_diff_NDVI_2020":0.02660054692601377,"abs_diff_NDVI_2021":0.039339371968613035,"abs_diff_NDVI_2022":0.04016038842841829,"abs_diff_SLOPE_DEG":2.4677462175197196,"candidate_id":"C153","center_lat":22.731519035510598,"center_lon":120.38491371877763,"center_x_utm51n":231409.013,"center_y_utm51n":2516169.146,"distance_from_sc0002_m":3605.5512754639894,"dx_m":-3000,"dy_m":2000,"match_pass":1,"match_score":1.4650663691406383,"nominal_square_area_ha":63.456375334400995,"outcome_data_used_for_ranking":"NO","selection_data_end":"2022-12-31","rank":19}},{"type":"Feature","geometry":{"geodesic":false,"crs":{"type":"name","properties":{"name":"EPSG:32651"}},"type":"Polygon","coordinates":[[[120.44820075203332,22.78311142823232],[120.45595376249979,22.78323531108615],[120.45582033714821,22.79042437623511],[120.44806692114082,22.790300449991257],[120.44820075203332,22.78311142823232]]]},"id":"312","properties":{"BASEVEG_2022":0.9027552313678774,"ELEV_M":71.50808302956187,"NDMI_2020":0.2319144698687799,"NDMI_2021":0.19002510509169102,"NDMI_2022":0.2628879834127641,"NDVI_2020":0.7373034898153505,"NDVI_2021":0.6888262989913808,"NDVI_2022":0.7778154925017275,"SLOPE_DEG":12.751361904655655,"VALID_2020":27.49080466943957,"VALID_2021":26.87129565145925,"VALID_2022":18.235735512125004,"abs_diff_BASEVEG_2022":0.017364503610780124,"abs_diff_ELEV_M":23.18823058893021,"abs_diff_NDMI_2020":0.008260157689078645,"abs_diff_NDMI_2021":0.05734086207828401,"abs_diff_NDMI_2022":0.03097278236866255,"abs_diff_NDVI_2020":0.021101420703065754,"abs_diff_NDVI_2021":0.02323567251669556,"abs_diff_NDVI_2022":0.025906234751495893,"abs_diff_SLOPE_DEG":2.6636047871369932,"candidate_id":"C313","center_lat":22.78676793930391,"center_lon":120.45201044319887,"center_x_utm51n":238409.013,"center_y_utm51n":2522169.146,"distance_from_sc0002_m":8944.27190999916,"dx_m":4000,"dy_m":8000,"match_pass":1,"match_score":1.502263514331132,"nominal_square_area_ha":63.456375334400995,"outcome_data_used_for_ranking":"NO","selection_data_end":"2022-12-31","rank":20}}]}