{"type":"FeatureCollection","features":[{"type":"Feature","geometry":{"geodesic":false,"type":"Polygon","coordinates":[[[120.41211564021411,22.717804469199915],[120.41232077001267,22.711106846035747],[120.41232077001266,22.71108458995391],[120.41258832630717,22.708007807372148],[120.41259272256107,22.707967694856094],[120.41260169091858,22.70792752667832],[120.41261505552865,22.70788742142408],[120.41263290431486,22.707847278892753],[120.41265514935043,22.707811617766584],[120.41311446891253,22.70710708333978],[120.41314119802512,22.707066884803325],[120.41317241129106,22.707031231107745],[120.41320810870707,22.707000040426678],[120.41324380611323,22.706973268209993],[120.41328389973988,22.706950977378593],[120.41332847750759,22.706928731091],[120.41337314318442,22.70691080305374],[120.413422117147,22.706897456588212],[120.41346678279146,22.70689302936371],[120.41351575671851,22.706888601599385],[120.41356481855141,22.706888573887905],[120.41361388036569,22.70689304642687],[120.41366294216132,22.70690193738842],[120.41370751979822,22.706919784327773],[120.41455027163619,22.707223014799744],[120.41459493689054,22.707240842815086],[120.41463951420576,22.707263107596944],[120.41467960739922,22.70728990992395],[120.41471530439871,22.707321067774117],[120.41530834793437,22.70786066965158],[120.41534404476008,22.70789632724092],[120.41537525749368,22.707931940366006],[120.41539750205695,22.70797212845658],[120.41650339492251,22.70988063985978],[120.41652572721387,22.70992072689341],[120.41653909141786,22.70996530725309],[120.4165524556205,22.71000546925007],[120.41656133578068,22.710050087088497],[120.41713661059954,22.715432185196963],[120.41714100669867,22.715481258463793],[120.41713661059954,22.715525788374038],[120.41704736975555,22.716324041533536],[120.41673524612153,22.718981656496705],[120.41672636597332,22.719026224414478],[120.4167173979022,22.719066392382203],[120.41669963760266,22.7191065173488],[120.41668178937843,22.719146578890545],[120.41665945711404,22.719182259892],[120.41663272872955,22.719217960309578],[120.41660151629986,22.719249198364057],[120.41635621271665,22.719481082899982],[120.4163071519441,22.71952120868904],[120.41595941779788,22.719775334791052],[120.4159237211423,22.719802110547974],[120.41587914427032,22.71982436148562],[120.41583456738294,22.719842194049594],[120.41578990255731,22.719855626624415],[120.41574532563914,22.719864540606576],[120.41271317985996,22.720368407171726],[120.41266860187999,22.72037290191241],[120.41261953970668,22.720372852206538],[120.41257496169439,22.720372846618503],[120.41252589948552,22.720363959921308],[120.41248132144091,22.720355035516086],[120.41243665545568,22.72033721069302],[120.41239656156606,22.72031932977734],[120.41235646766403,22.720297030355937],[120.41232077001266,22.720270293138633],[120.41228507235145,22.720243555896996],[120.41225385887113,22.720207862167335],[120.41222264538327,22.720176668723692],[120.41220040027322,22.720136562954185],[120.41218255142724,22.720096437891804],[120.41216470257878,22.720056312816315],[120.41215133792215,22.72001615006892],[120.41214685372782,22.71997159371924],[120.41214236953337,22.71992695554246],[120.41211115601857,22.717826762888397],[120.41211564021411,22.717804469199915]]]},"id":"0","properties":{"pre_treatment_match_score":null,"selected_control_order":0,"selection_frozen_before_outcome":"YES","site_id":"SC0002","site_type":"treatment"}},{"type":"Feature","geometry":{"geodesic":false,"crs":{"type":"name","properties":{"name":"EPSG:32651"}},"type":"Polygon","coordinates":[[[231010.71545000002,2524770.8484500004],[231807.31055,2524770.8484500004],[231807.31055,2525567.44355],[231010.71545000002,2525567.44355],[231010.71545000002,2524770.8484500004]]]},"id":"1","properties":{"pre_treatment_match_score":0.25179461,"selected_control_order":1,"selection_frozen_before_outcome":"YES","site_id":"C162","site_type":"control"}},{"type":"Feature","geometry":{"geodesic":false,"crs":{"type":"name","properties":{"name":"EPSG:32651"}},"type":"Polygon","coordinates":[[[232010.71545000002,2511770.8484500004],[232807.31055,2511770.8484500004],[232807.31055,2512567.44355],[232010.71545000002,2512567.44355],[232010.71545000002,2511770.8484500004]]]},"id":"2","properties":{"pre_treatment_match_score":0.517142889,"selected_control_order":2,"selection_frozen_before_outcome":"YES","site_id":"C172","site_type":"control"}},{"type":"Feature","geometry":{"geodesic":false,"crs":{"type":"name","properties":{"name":"EPSG:32651"}},"type":"Polygon","coordinates":[[[232010.71545000002,2515770.8484500004],[232807.31055,2515770.8484500004],[232807.31055,2516567.44355],[232010.71545000002,2516567.44355],[232010.71545000002,2515770.8484500004]]]},"id":"3","properties":{"pre_treatment_match_score":0.536305349,"selected_control_order":3,"selection_frozen_before_outcome":"YES","site_id":"C176","site_type":"control"}},{"type":"Feature","geometry":{"geodesic":false,"crs":{"type":"name","properties":{"name":"EPSG:32651"}},"type":"Polygon","coordinates":[[[234010.71545000002,2520770.8484500004],[234807.31055,2520770.8484500004],[234807.31055,2521567.44355],[234010.71545000002,2521567.44355],[234010.71545000002,2520770.8484500004]]]},"id":"4","properties":{"pre_treatment_match_score":0.674966065,"selected_control_order":4,"selection_frozen_before_outcome":"YES","site_id":"C222","site_type":"control"}},{"type":"Feature","geometry":{"geodesic":false,"crs":{"type":"name","properties":{"name":"EPSG:32651"}},"type":"Polygon","coordinates":[[[230010.71545000002,2514770.8484500004],[230807.31055,2514770.8484500004],[230807.31055,2515567.44355],[230010.71545000002,2515567.44355],[230010.71545000002,2514770.8484500004]]]},"id":"5","properties":{"pre_treatment_match_score":0.741549727,"selected_control_order":5,"selection_frozen_before_outcome":"YES","site_id":"C129","site_type":"control"}}]}